[{"OBJECT_NAME":"NOAA 18","OBJECT_ID":"2005-018A","EPOCH":"2026-03-24T11:24:32.486400","MEAN_MOTION":14.13713744,"ECCENTRICITY":0.0014779,"INCLINATION":98.8137,"RA_OF_ASC_NODE":164.3742,"ARG_OF_PERICENTER":35.7438,"MEAN_ANOMALY":324.4721,"EPHEMERIS_TYPE":0,"CLASSIFICATION_TYPE":"U","NORAD_CAT_ID":28654,"ELEMENT_SET_NO":999,"REV_AT_EPOCH":7434,"BSTAR":5.3357e-5,"MEAN_MOTION_DOT":5.7e-7,"MEAN_MOTION_DDOT":0},{"OBJECT_NAME":"NOAA 19","OBJECT_ID":"2009-005A","EPOCH":"2026-03-24T11:01:13.944288","MEAN_MOTION":14.13459517,"ECCENTRICITY":0.0012692,"INCLINATION":98.958,"RA_OF_ASC_NODE":154.2532,"ARG_OF_PERICENTER":269.65,"MEAN_ANOMALY":90.3218,"EPHEMERIS_TYPE":0,"CLASSIFICATION_TYPE":"U","NORAD_CAT_ID":33591,"ELEMENT_SET_NO":999,"REV_AT_EPOCH":88251,"BSTAR":4.7517e-5,"MEAN_MOTION_DOT":4.4e-7,"MEAN_MOTION_DDOT":0},{"OBJECT_NAME":"SUOMI NPP","OBJECT_ID":"2011-061A","EPOCH":"2026-03-24T13:05:07.556640","MEAN_MOTION":14.1949719,"ECCENTRICITY":0.0001444,"INCLINATION":98.7886,"RA_OF_ASC_NODE":25.0312,"ARG_OF_PERICENTER":169.6634,"MEAN_ANOMALY":190.4572,"EPHEMERIS_TYPE":0,"CLASSIFICATION_TYPE":"U","NORAD_CAT_ID":37849,"ELEMENT_SET_NO":999,"REV_AT_EPOCH":74643,"BSTAR":6.1479e-5,"MEAN_MOTION_DOT":8.5e-7,"MEAN_MOTION_DDOT":0},{"OBJECT_NAME":"NOAA 20 (JPSS-1)","OBJECT_ID":"2017-073A","EPOCH":"2026-03-24T11:44:34.963584","MEAN_MOTION":14.19539782,"ECCENTRICITY":0.0001768,"INCLINATION":98.7708,"RA_OF_ASC_NODE":23.7308,"ARG_OF_PERICENTER":118.0387,"MEAN_ANOMALY":242.0968,"EPHEMERIS_TYPE":0,"CLASSIFICATION_TYPE":"U","NORAD_CAT_ID":43013,"ELEMENT_SET_NO":999,"REV_AT_EPOCH":43245,"BSTAR":6.296e-5,"MEAN_MOTION_DOT":8.9e-7,"MEAN_MOTION_DDOT":0}]
