NOAA 18                 
1 28654U 05018A   26083.47537600  .00000057  00000+0  53357-4 0  9998
2 28654  98.8137 164.3742 0014779  35.7438 324.4721 14.13713744 74344
NOAA 19                 
1 33591U 09005A   26083.45918917  .00000044  00000+0  47517-4 0  9993
2 33591  98.9580 154.2532 0012692 269.6500  90.3218 14.13459517882519
SUOMI NPP               
1 37849U 11061A   26083.54522635  .00000085  00000+0  61479-4 0  9994
2 37849  98.7886  25.0312 0001444 169.6634 190.4572 14.19497190746437
NOAA 20 (JPSS-1)        
1 43013U 17073A   26083.48929356  .00000089  00000+0  62960-4 0  9997
2 43013  98.7708  23.7308 0001768 118.0387 242.0968 14.19539782432453
